$$SOE
2460154.500000000, A.D. 2023-Jul-29 00:00:00.0000, -4.167327937154041E+08, 9.484683553508550E+07, -1.472250238470212E+07,
2460161.500000000, A.D. 2023-Aug-05 00:00:00.0000, -4.199801758780819E+08, 8.566375660443538E+07, -1.495799994188112E+07,
2460168.500000000, A.D. 2023-Aug-12 00:00:00.0000, -4.229691864658313E+08, 7.642794113252917E+07, -1.518429143830933E+07,
2460175.500000000, A.D. 2023-Aug-19 00:00:00.0000, -4.257001578100304E+08, 6.714546249290317E+07, -1.540131537315799E+07,
2460182.500000000, A.D. 2023-Aug-26 00:00:00.0000, -4.281735001478869E+08, 5.782231001338107E+07, -1.560901427025337E+07,
2460189.500000000, A.D. 2023-Sep-02 00:00:00.0000, -4.303896980064816E+08, 4.846439215228759E+07, -1.580733449969337E+07,
2460196.500000000, A.D. 2023-Sep-09 00:00:00.0000, -4.323493068528380E+08, 3.907753955588593E+07, -1.599622612153004E+07,
2460203.500000000, A.D. 2023-Sep-16 00:00:00.0000, -4.340529498288386E+08, 2.966750793287062E+07, -1.617564277122378E+07,
2460210.500000000, A.D. 2023-Sep-23 00:00:00.0000, -4.355013141423900E+08, 2.023998102738263E+07, -1.634554160112265E+07,
2460217.500000000, A.D. 2023-Sep-30 00:00:00.0000, -4.366951474426246E+08, 1.080057487643162E+07, -1.650588314898033E+07,
2460224.500000000, A.D. 2023-Oct-07 00:00:00.0000, -4.376352565226057E+08, 1.354842804112173E+06, -1.665663096158909E+07,
2460231.500000000, A.D. 2023-Oct-14 00:00:00.0000, -4.383225073019536E+08, -8.091722164125595E+06, -1.679775133947708E+07,
2460238.500000000, A.D. 2023-Oct-21 00:00:00.0000, -4.387578228522961E+08, -1.753368586573108E+07, -1.692921336729208E+07,
2460245.500000000, A.D. 2023-Oct-28 00:00:00.0000, -4.389421808789487E+08, -2.696567028554494E+07, -1.705098891358656E+07,
2460252.500000000, A.D. 2023-Nov-04 00:00:00.0000, -4.388766118998598E+08, -3.638235033437665E+07, -1.716305254771628E+07,
2460259.500000000, A.D. 2023-Nov-11 00:00:00.0000, -4.385621979382663E+08, -4.577845072423047E+07, -1.726538143890452E+07,
2460266.500000000, A.D. 2023-Nov-18 00:00:00.0000, -4.380000715040895E+08, -5.514874300577892E+07, -1.735795526252349E+07,
2460273.500000000, A.D. 2023-Nov-25 00:00:00.0000, -4.371914147855223E+08, -6.448804274646068E+07, -1.744075611799387E+07,
2460280.500000000, A.D. 2023-Dec-02 00:00:00.0000, -4.361374590172296E+08, -7.379120686144842E+07, -1.751376846142575E+07,
2460287.500000000, A.D. 2023-Dec-09 00:00:00.0000, -4.348394839426965E+08, -8.305313115740666E+07, -1.757697906470519E+07,
2460294.500000000, A.D. 2023-Dec-16 00:00:00.0000, -4.332988170792654E+08, -9.226874807715857E+07, -1.763037702623744E+07,
2460301.500000000, A.D. 2023-Dec-23 00:00:00.0000, -4.315168324337747E+08, -1.014330239579372E+08, -1.767395380904347E+07,
2460308.500000000, A.D. 2023-Dec-30 00:00:00.0000, -4.294949500051058E+08, -1.105409547536887E+08, -1.770770309744866E+07,
2460315.500000000, A.D. 2024-Jan-06 00:00:00.0000, -4.272346378425369E+08, -1.195875625821819E+08, -1.773162050273037E+07,
2460322.500000000, A.D. 2024-Jan-13 00:00:00.0000, -4.247374134846195E+08, -1.285678949036780E+08, -1.774570355644424E+07,
2460329.500000000, A.D. 2024-Jan-20 00:00:00.0000, -4.220048435510466E+08, -1.374770232458198E+08, -1.774995185130354E+07,
2460336.500000000, A.D. 2024-Jan-27 00:00:00.0000, -4.190385435110252E+08, -1.463100408235312E+08, -1.774436708998196E+07,
2460343.500000000, A.D. 2024-Feb-03 00:00:00.0000, -4.158401780541322E+08, -1.550620600060149E+08, -1.772895308042324E+07,
2460350.500000000, A.D. 2024-Feb-10 00:00:00.0000, -4.124114617878351E+08, -1.637282099253642E+08, -1.770371572766025E+07,
2460357.500000000, A.D. 2024-Feb-17 00:00:00.0000, -4.087541601259223E+08, -1.723036342203649E+08, -1.766866303485582E+07,
2460364.500000000, A.D. 2024-Feb-24 00:00:00.0000, -4.048700903340027E+08, -1.807834889008752E+08, -1.762380511595937E+07,
2460371.500000000, A.D. 2024-Mar-02 00:00:00.0000, -4.007611227037097E+08, -1.891629403654015E+08, -1.756915422540287E+07,
2460378.500000000, A.D. 2024-Mar-09 00:00:00.0000, -3.964291817173709E+08, -1.974371636353599E+08, -1.750472482270852E+07,
2460385.500000000, A.D. 2024-Mar-16 00:00:00.0000, -3.918762468085352E+08, -2.056013406099010E+08, -1.743053369213498E+07,
2460392.500000000, A.D. 2024-Mar-23 00:00:00.0000, -3.871043528227511E+08, -2.136506572336485E+08, -1.734660001722293E+07,
2460399.500000000, A.D. 2024-Mar-30 00:00:00.0000, -3.821155924205981E+08, -2.215802996060876E+08, -1.725294520692044E+07,
2460406.500000000, A.D. 2024-Apr-06 00:00:00.0000, -3.769121201691537E+08, -2.293854524034027E+08, -1.714959277225336E+07,
2460413.500000000, A.D. 2024-Apr-13 00:00:00.0000, -3.714961547749275E+08, -2.370612987794661E+08, -1.703656851117852E+07,
2460420.500000000, A.D. 2024-Apr-20 00:00:00.0000, -3.658699804137163E+08, -2.446030190708476E+08, -1.691390069548136E+07,
2460427.500000000, A.D. 2024-Apr-27 00:00:00.0000, -3.600359486758296E+08, -2.520057888687698E+08, -1.678162016624697E+07,
2460434.500000000, A.D. 2024-May-04 00:00:00.0000, -3.539964810399774E+08, -2.592647771647323E+08, -1.663976040342481E+07,
2460441.500000000, A.D. 2024-May-11 00:00:00.0000, -3.477540716400048E+08, -2.663751446767125E+08, -1.648835759983145E+07,
2460448.500000000, A.D. 2024-May-18 00:00:00.0000, -3.413112902465155E+08, -2.733320423402510E+08, -1.632745074552715E+07,
2460455.500000000, A.D. 2024-May-25 00:00:00.0000, -3.346707854435729E+08, -2.801306099777658E+08, -1.615708172553921E+07,
2460462.500000000, A.D. 2024-Jun-01 00:00:00.0000, -3.278352879460638E+08, -2.867659752100945E+08, -1.597729544120815E+07,
2460469.500000000, A.D. 2024-Jun-08 00:00:00.0000, -3.208076138172282E+08, -2.932332526401699E+08, -1.578813997971940E+07,
2460476.500000000, A.D. 2024-Jun-15 00:00:00.0000, -3.135906671929227E+08, -2.995275427709426E+08, -1.558966682397355E+07,
2460483.500000000, A.D. 2024-Jun-22 00:00:00.0000, -3.061874435235010E+08, -3.056439294897319E+08, -1.538193091456787E+07,
2460490.500000000, A.D. 2024-Jun-29 00:00:00.0000, -2.986010354599227E+08, -3.115774779481649E+08, -1.516499051818068E+07,
2460497.500000000, A.D. 2024-Jul-06 00:00:00.0000, -2.908346387449512E+08, -3.173232353195865E+08, -1.493890734721719E+07,
2460504.500000000, A.D. 2024-Jul-13 00:00:00.0000, -2.828915561674792E+08, -3.228762316216760E+08, -1.470374687900491E+07,
2460511.500000000, A.D. 2024-Jul-20 00:00:00.0000, -2.747752015723959E+08, -3.282314794669166E+08, -1.445957859867273E+07,
2460518.500000000, A.D. 2024-Jul-27 00:00:00.0000, -2.664891045875384E+08, -3.333839737122867E+08, -1.420647618416467E+07,
2460525.500000000, A.D. 2024-Aug-03 00:00:00.0000, -2.580369157997448E+08, -3.383286913969048E+08, -1.394451768951687E+07,
2460532.500000000, A.D. 2024-Aug-10 00:00:00.0000, -2.494224122194769E+08, -3.430605919883119E+08, -1.367378574267548E+07,
2460539.500000000, A.D. 2024-Aug-17 00:00:00.0000, -2.406495029928010E+08, -3.475746179339196E+08, -1.339436776122849E+07,
2460546.500000000, A.D. 2024-Aug-24 00:00:00.0000, -2.317222353395879E+08, -3.518656955594140E+08, -1.310635619120291E+07,
2460553.500000000, A.D. 2024-Aug-31 00:00:00.0000, -2.226448006090310E+08, -3.559287363961543E+08, -1.280984878525865E+07,
2460560.500000000, A.D. 2024-Sep-07 00:00:00.0000, -2.134215400934491E+08, -3.597586388326616E+08, -1.250494894408377E+07,
2460567.500000000, A.D. 2024-Sep-14 00:00:00.0000, -2.040569505208133E+08, -3.633502891161124E+08, -1.219176604785065E+07,
2460574.500000000, A.D. 2024-Sep-21 00:00:00.0000, -1.945556912582241E+08, -3.666985613130226E+08, -1.187041555820745E+07,
2460581.500000000, A.D. 2024-Sep-28 00:00:00.0000, -1.849225937138214E+08, -3.697983194808057E+08, -1.154101911027344E+07,
2460588.500000000, A.D. 2024-Oct-05 00:00:00.0000, -1.751626692659766E+08, -3.726444220784459E+08, -1.120370493183336E+07,
2460595.500000000, A.D. 2024-Oct-12 00:00:00.0000, -1.652811160795524E+08, -3.752317256713029E+08, -1.085860831395608E+07,
2460602.500000000, A.D. 2024-Oct-19 00:00:00.0000, -1.552833265598778E+08, -3.775550882387795E+08, -1.050587199533230E+07,
2460609.500000000, A.D. 2024-Oct-26 00:00:00.0000, -1.451748954762738E+08, -3.796093729255801E+08, -1.014564652340752E+07,
2460616.500000000, A.D. 2024-Nov-02 00:00:00.0000, -1.349616284952160E+08, -3.813894524250861E+08, -9.778090628371954E+06,
2460623.500000000, A.D. 2024-Nov-09 00:00:00.0000, -1.246495510204635E+08, -3.828902140161182E+08, -9.403371617389411E+06,
2460630.500000000, A.D. 2024-Nov-16 00:00:00.0000, -1.142449173047221E+08, -3.841065652980318E+08, -9.021665791552484E+06,
2460637.500000000, A.D. 2024-Nov-23 00:00:00.0000, -1.037542197733591E+08, -3.850334407226493E+08, -8.633158893919528E+06,
2460644.500000000, A.D. 2024-Nov-30 00:00:00.0000, -9.318419833590207E+07, -3.856658090172328E+08, -8.238046611030310E+06,
2460651.500000000, A.D. 2024-Dec-07 00:00:00.0000, -8.254184924581663E+07, -3.859986811323280E+08, -7.836535131668597E+06,
2460658.500000000, A.D. 2024-Dec-14 00:00:00.0000, -7.183443417248382E+07, -3.860271175475537E+08, -7.428841599209338E+06,
2460665.500000000, A.D. 2024-Dec-21 00:00:00.0000, -6.106949177341844E+07, -3.857462362351090E+08, -7.015194345710874E+06,
2460672.500000000, A.D. 2024-Dec-28 00:00:00.0000, -5.025484975685528E+07, -3.851512243109735E+08, -6.595833330555350E+06,
2460679.500000000, A.D. 2025-Jan-04 00:00:00.0000, -3.939863479401739E+07, -3.842373510656070E+08, -6.171010826789796E+06,
2460686.500000000, A.D. 2025-Jan-11 00:00:00.0000, -2.850928205262131E+07, -3.829999807849513E+08, -5.740992051131666E+06,
2460693.500000000, A.D. 2025-Jan-18 00:00:00.0000, -1.759554521066694E+07, -3.814345863522027E+08, -5.306055726907372E+06,
2460700.500000000, A.D. 2025-Jan-25 00:00:00.0000, -6.666506639903346E+06, -3.795367641777534E+08, -4.866494638996094E+06,
2460707.500000000, A.D. 2025-Feb-01 00:00:00.0000, 4.268412507828830E+06, -3.773022505608999E+08, -4.422616198264569E+06,
2460714.500000000, A.D. 2025-Feb-08 00:00:00.0000, 1.519944245885859E+07, -3.747269395371687E+08, -3.974743016628087E+06,
$$EOE